IRIDIUM 26              
1 24903U 97043A   25362.50218513  .00000502  00000+0  16182-3 0  9991
2 24903  86.3946  28.9359 0002289  96.8258 263.3200 14.37340158484650
IRIDIUM 22              
1 24907U 97043E   25362.45440434  .00000418  00000+0  13698-3 0  9993
2 24907  86.3951  32.6630 0002333  91.9634 268.1830 14.36132636484659
DUMMY MASS 1            
1 24925U 97048A   25362.14681115  .00000512  00000+0  53729-4 0  9992
2 24925  86.3331  45.5753 0007092 158.9582 201.1936 14.87196233533954
DUMMY MASS 2            
1 24926U 97048B   25362.41055347  .00000515  00000+0  54386-4 0  9998
2 24926  86.3332  47.0970 0007376 171.0677 189.0681 14.86946963533762
IRIDIUM 29              
1 24944U 97051A   25362.26730350  .00000505  00000+0  16475-3 0  9994
2 24944  86.3940  62.4231 0002208  89.6784 270.4666 14.36675570481139
IRIDIUM 33              
1 24946U 97051C   25362.25595664  .00000419  00000+0  13995-3 0  9990
2 24946  86.3856  61.7077 0008833 151.3180 208.8504 14.35048503480576
IRIDIUM 28              
1 24948U 97051E   25362.18820194  .00000489  00000+0  15675-3 0  9997
2 24948  86.3947  59.8612 0002442 106.6840 253.4626 14.37575595481714
IRIDIUM 36              
1 24967U 97056C   25362.26050866  .00000576  00000+0  18491-3 0  9999
2 24967  86.3961  91.4591 0002387  98.6173 261.5295 14.37798593480105
